[{"OBJECT_NAME":"1998-067XK","OBJECT_ID":"1998-067XK","EPOCH":"2025-10-01T11:37:44.961024","MEAN_MOTION":15.53048518,"ECCENTRICITY":6.18e-5,"INCLINATION":51.6324,"RA_OF_ASC_NODE":140.0433,"ARG_OF_PERICENTER":204.6502,"MEAN_ANOMALY":155.4459,"EPHEMERIS_TYPE":0,"CLASSIFICATION_TYPE":"U","NORAD_CAT_ID":65731,"ELEMENT_SET_NO":999,"REV_AT_EPOCH":187,"BSTAR":0.0013455,"MEAN_MOTION_DOT":0.00086103,"MEAN_MOTION_DDOT":0},{"OBJECT_NAME":"RSP-03","OBJECT_ID":"1998-067XL","EPOCH":"2025-10-01T00:48:19.435392","MEAN_MOTION":15.53163212,"ECCENTRICITY":7.395e-5,"INCLINATION":51.6322,"RA_OF_ASC_NODE":142.281,"ARG_OF_PERICENTER":210.8441,"MEAN_ANOMALY":149.2506,"EPHEMERIS_TYPE":0,"CLASSIFICATION_TYPE":"U","NORAD_CAT_ID":65732,"ELEMENT_SET_NO":999,"REV_AT_EPOCH":181,"BSTAR":0.0014084536,"MEAN_MOTION_DOT":0.00090579,"MEAN_MOTION_DDOT":0},{"OBJECT_NAME":"1998-067XM","OBJECT_ID":"1998-067XM","EPOCH":"2025-10-01T11:35:04.288992","MEAN_MOTION":15.53623674,"ECCENTRICITY":0.0003155,"INCLINATION":51.6321,"RA_OF_ASC_NODE":140.0311,"ARG_OF_PERICENTER":95.4611,"MEAN_ANOMALY":264.674,"EPHEMERIS_TYPE":0,"CLASSIFICATION_TYPE":"U","NORAD_CAT_ID":65733,"ELEMENT_SET_NO":999,"REV_AT_EPOCH":188,"BSTAR":0.0018224,"MEAN_MOTION_DOT":0.00119781,"MEAN_MOTION_DDOT":0}]
