1998-067XK              
1 65731U 98067XK  25274.48454816  .00086103  00000+0  13455-2 0  9999
2 65731  51.6324 140.0433 0000618 204.6502 155.4459 15.53048518  1873
RSP-03                  
1 65732U 98067XL  25274.03355828  .00090579  00000+0  14085-2 0  9996
2 65732  51.6322 142.2810 0000739 210.8441 149.2506 15.53163212  1817
1998-067XM              
1 65733U 98067XM  25274.48268853  .00119781  00000+0  18224-2 0  9993
2 65733  51.6321 140.0311 0003155  95.4611 264.6740 15.53623674  1882
